1 45570U 20025AR  23140.88923776  .00012974  00000-0  88743-3 0  9996
2 45570  53.0541   2.6380 0001200  86.0473 274.0653 15.06436265171050
1 45570U 20025AR  23141.02192615  .00011682  00000-0  80102-3 0  9999
2 45570  53.0547   2.0413 0001224  89.8020 270.3109 15.06438637170488
1 45570U 20025AR  23141.61906893 -.00005605  00000-0 -35788-3 0  9995
2 45570  53.0547 359.3608 0000803  82.3529 277.7551 15.06381910171165
1 45570U 20025AR  23141.61906893 -.00005605  00000-0 -35788-3 0  9995
2 45570  53.0547 359.3608 0000803  82.3529 277.7551 15.06381910170579
1 45570U 20025AR  23141.75176118 -.00003744  00000-0 -23268-3 0  9991
2 45570  53.0548 358.7643 0001165 112.4887 247.6225 15.06387363171186
1 45570U 20025AR  23142.61428687  .00006735  00000-0  47088-3 0  9995
2 45570  53.0544 354.8937 0001167 113.6209 246.4903 15.06377776171310
1 45570U 20025AR  23142.87967924  .00018088  00000-0  12305-2 0  9992
2 45570  53.0543 353.7029 0001192 116.8333 243.2778 15.06387193171353
1 45570U 20025AR  23142.87967924  .00018088  00000-0  12305-2 0  9992
2 45570  53.0543 353.7029 0001192 116.8333 243.2778 15.06387193170767
1 45570U 20025AR  23143.87488489  .00009019  00000-0  62357-3 0  9994
2 45570  53.0538 349.2354 0001103 118.7998 241.3102 15.06400873171506
1 45570U 20025AR  23144.07392398  .00012081  00000-0  82834-3 0  9995
2 45570  53.0539 348.3417 0001104 118.4682 241.6418 15.06408714170947
1 45570U 20025AR  23144.53834590  .00013236  00000-0  90527-3 0  9992
2 45570  53.0540 346.2568 0001053 116.6564 243.4533 15.06421181171600
1 45570U 20025AR  23145.93162270  .00004341  00000-0  31008-3 0  9992
2 45570  53.0540 340.0020 0001086 121.3456 238.7640 15.06404565171810
1 45570U 20025AR  23145.93162270  .00004341  00000-0  31008-3 0  9992
2 45570  53.0540 340.0020 0001086 121.3456 238.7640 15.06404565171225
1 45570U 20025AR  23146.52874041  .00009795  00000-0  67532-3 0  9993
2 45570  53.0541 337.3211 0001043 120.8828 239.2263 15.06413589171905
1 45570U 20025AR  23146.79412333  .00010286  00000-0  70798-3 0  9999
2 45570  53.0543 336.1305 0001047 112.6950 247.4150 15.06421688171946
1 45570U 20025AR  23146.79412333  .00010286  00000-0  70798-3 0  9999
2 45570  53.0543 336.1305 0001047 112.6950 247.4150 15.06421688171351
1 45570U 20025AR  23147.25855438  .00005787  00000-0  40697-3 0  9993
2 45570  53.0529 334.0533 0001962  40.9289 319.1847 15.06412365171429
1 45570U 20025AR  23147.78933331 -.00001205  00000-0 -62034-4 0  9993
2 45570  53.0542 331.6619 0001024  79.8933 280.2172 15.06394922171504
1 45570U 20025AR  23147.92202774 -.00000983  00000-0 -47143-4 0  9995
2 45570  53.0543 331.0665 0001031  78.8634 281.2471 15.06394389172113
1 45570U 20025AR  23148.78453138  .00007365  00000-0  51265-3 0  9990
2 45570  53.0544 327.1943 0000993  73.4326 286.6772 15.06412836172249
1 45570U 20025AR  23148.78453138  .00007365  00000-0  51265-3 0  9990
2 45570  53.0544 327.1943 0000993  73.4326 286.6772 15.06412836171653
1 45570U 20025AR  23149.18261588  .00001900  00000-0  14638-3 0  9993
2 45570  53.0535 325.4077 0001362  61.2717 298.8409 15.06400395171718
1 45570U 20025AR  23149.51435825  .00003351  00000-0  24382-3 0  9996
2 45570  53.0538 323.9189 0002376  79.5008 280.6249 15.06395658172356
1 45570U 20025AR  23149.77974852  .00001275  00000-0  10449-3 0  9994
2 45570  53.0540 322.7273 0000900  72.9831 287.1257 15.06387342172398
1 45570U 20025AR  23149.77974852  .00001275  00000-0  10449-3 0  9994
2 45570  53.0540 322.7273 0000900  72.9831 287.1257 15.06387342171803
1 45570U 20025AR  23150.17783134  .00017565  00000-0  11952-2 0  9999
2 45570  53.0539 320.9405 0001210  86.4190 273.6938 15.06398716171860
1 45570U 20025AR  23150.50956389  .00022729  00000-0  15396-2 0  9994
2 45570  53.0535 319.4501 0000979  73.8975 286.2121 15.06407017172509
1 45570U 20025AR  23150.84129156  .00019195  00000-0  13030-2 0  9991
2 45570  53.0535 317.9616 0001230  84.9058 275.2072 15.06428286172554
1 45570U 20025AR  23151.17302362  .00005017  00000-0  35530-3 0  9998
2 45570  53.0546 316.4723 0001222  90.7856 269.3273 15.06416711172019
1 45570U 20025AR  23151.43841202  .00003479  00000-0  25226-3 0  9999
2 45570  53.0532 315.2832 0001897  87.8509 272.2698 15.06414790172640
1 45570U 20025AR  23151.77014685 -.00000615  00000-0 -22403-4 0  9999
2 45570  53.0543 313.7936 0001561  89.5590 270.5578 15.06404069172698
1 45570U 20025AR  23151.77014685 -.00000615  00000-0 -22403-4 0  9999
2 45570  53.0543 313.7936 0001561  89.5590 270.5578 15.06404069172104
1 45570U 20025AR  23152.16822175  .00006187  00000-0  43363-3 0  9999
2 45570  53.0545 312.0056 0001593  88.8174 271.2998 15.06420163172754
1 45570U 20025AR  23152.16822175  .00006187  00000-0  43363-3 0  9999
2 45570  53.0545 312.0056 0001593  88.8174 271.2998 15.06420163172169
1 45570U 20025AR  23153.16340317  .00007928  00000-0  55010-3 0  9999
2 45570  53.0540 307.5311 0000776 203.3885 156.7069 15.06426363172313
1 45570U 20025AR  23153.56150033 -.00008270  00000-0 -53711-3 0  9996
2 45570  53.0535 305.7498 0001351  76.2059 283.9080 15.06387280172964
1 45570U 20025AR  23153.69419500 -.00002372  00000-0 -14044-3 0  9990
2 45570  53.0538 305.1538 0001408  71.5275 288.5867 15.06383552172981
1 45570U 20025AR  23153.69419500 -.00002372  00000-0 -14044-3 0  9990
2 45570  53.0538 305.1538 0001408  71.5275 288.5867 15.06383552172396
1 45570U 20025AR  23154.55671589  .00019116  00000-0  12988-2 0  9999
2 45570  53.0540 301.2821 0001450  65.2159 294.8980 15.06398598173112
1 45570U 20025AR  23154.68940889  .00020792  00000-0  14104-2 0  9999
2 45570  53.0546 300.6867 0001478  64.1439 295.9702 15.06405386173130
1 45570U 20025AR  23154.68940889  .00020792  00000-0  14104-2 0  9999
2 45570  53.0546 300.6867 0001478  64.1439 295.9702 15.06405386172544
1 45570U 20025AR  23155.41922890  .00006592  00000-0  46112-3 0  9990
2 45570  53.0548 297.4101 0001495  71.1373 288.9778 15.06393099172658
1 45570U 20025AR  23155.55192300  .00002886  00000-0  21258-3 0  9996
2 45570  53.0543 296.8155 0001468  74.9897 285.1254 15.06392994173266
1 45570U 20025AR  23155.68461742  .00004582  00000-0  32631-3 0  9991
2 45570  53.0545 296.2196 0001468  67.4776 292.6368 15.06395257173286
1 45570U 20025AR  23156.34807781  .00010043  00000-0  69186-3 0  9996
2 45570  53.0538 293.2391 0001352  57.3761 302.7358 15.06416469172792
1 45570U 20025AR  23156.54711347  .00013238  00000-0  90524-3 0  9999
2 45570  53.0536 292.3466 0001342  56.6998 303.4119 15.06427221173417
1 45570U 20025AR  23156.67980323  .00017170  00000-0  11676-2 0  9994
2 45570  53.0541 291.7513 0001394  55.1244 304.9876 15.06437848173438
1 45570U 20025AR  23157.40962100  .00006643  00000-0  46426-3 0  9994
2 45570  53.0542 288.4751 0001239  60.1430 299.9682 15.06411722173540
1 45570U 20025AR  23157.40962100  .00006643  00000-0  46426-3 0  9994
2 45570  53.0542 288.4751 0001239  60.1430 299.9682 15.06411722172954
1 45570U 20025AR  23157.74136147  .00022289  00000-0  15112-2 0  9996
2 45570  53.0537 286.9865 0001103  83.4749 276.6366 15.06382312173008
1 45570U 20025AR  23157.80770851  .00024180  00000-0  16372-2 0  9990
2 45570  53.0535 286.6887 0001074  83.5651 276.5460 15.06387248173600
1 45570U 20025AR  23158.33848289  .00019425  00000-0  13191-2 0  9992
2 45570  53.0533 284.3057 0001102  82.0653 278.0461 15.06407924173680
1 45570U 20025AR  23158.80290228  .00024975  00000-0  16881-2 0  9993
2 45570  53.0531 282.2213 0001070  77.3224 282.7885 15.06434092173750
1 45570U 20025AR  23159.06829239  .00001187  00000-0  98568-4 0  9996
2 45570  53.0531 281.0297 0001063 105.1849 254.9257 15.06399721173207
1 45570U 20025AR  23159.59907617  .00020618  00000-0  13995-2 0  9990
2 45570  53.0529 278.6465 0001406 104.7725 255.3420 15.06386126173877
1 45570U 20025AR  23159.59907617  .00020618  00000-0  13995-2 0  9990
2 45570  53.0529 278.6465 0001406 104.7725 255.3420 15.06386126173282
1 45570U 20025AR  23160.59427166  .00020752  00000-0  14069-2 0  9990
2 45570  53.0529 274.1793 0001112 100.2350 259.8765 15.06427335174028
1 45570U 20025AR  23161.32409058  .00008812  00000-0  60957-3 0  9993
2 45570  53.0531 270.9017 0000663  70.9553 289.1507 15.06407972173543
1 45570U 20025AR  23161.58948053  .00002211  00000-0  16731-3 0  9992
2 45570  53.0531 269.7114 0000924  72.9935 287.1155 15.06390995174176
1 45570U 20025AR  23161.58948053  .00002211  00000-0  16731-3 0  9992
2 45570  53.0531 269.7114 0000924  72.9935 287.1155 15.06390995173580
1 45570U 20025AR  23162.38564631  .00022186  00000-0  15031-2 0  9991
2 45570  53.0536 266.1379 0000902  63.0187 297.0894 15.06412944173708
1 45570U 20025AR  23162.58468429  .00022164  00000-0  15013-2 0  9997
2 45570  53.0536 265.2445 0000934  60.6892 299.4190 15.06420913174322
1 45570U 20025AR  23162.98276525  .00007887  00000-0  54763-3 0  9996
2 45570  53.0515 263.4597 0000929  86.8448 273.2647 15.06407773174380
1 45570U 20025AR  23162.98276525  .00007887  00000-0  54763-3 0  9996
2 45570  53.0515 263.4597 0000929  86.8448 273.2647 15.06407773173794
1 45570U 20025AR  23163.44719846  .00004887  00000-0  34674-3 0  9992
2 45570  53.0536 261.3721 0002068  74.8029 285.3188 15.06402309174459
1 45570U 20025AR  23163.97797204  .00014459  00000-0  98736-3 0  9999
2 45570  53.0532 258.9892 0001340  76.2156 283.8981 15.06407559174530
1 45570U 20025AR  23163.97797204  .00014459  00000-0  98736-3 0  9999
2 45570  53.0532 258.9892 0001340  76.2156 283.8981 15.06407559173944
1 45570U 20025AR  23164.97316323  .00011969  00000-0  82046-3 0  9999
2 45570  53.0541 254.5211 0001212  73.2583 286.8539 15.06425594174098
1 45570U 20025AR  23165.37124780 -.00002963  00000-0 -18016-3 0  9990
2 45570  53.0526 252.7336 0001023  85.1954 274.9151 15.06394246174742
1 45570U 20025AR  23165.37124780 -.00002963  00000-0 -18016-3 0  9990
2 45570  53.0526 252.7336 0001023  85.1954 274.9151 15.06394246174157
1 45570U 20025AR  23166.43280137  .00015611  00000-0  10643-2 0  9996
2 45570  53.0532 247.9685 0000923  81.4524 278.6570 15.06409562174319
